{
    "links": {
        "self": "http://www.neowsapp.com/rest/v1/neo/3736503?api_key=iIulBulltgU6a56xZRHN4H3l9WmuAYTsLGpBGhQ2"
    },
    "id": "3736503",
    "neo_reference_id": "3736503",
    "name": "(2015 XL261)",
    "designation": "2015 XL261",
    "nasa_jpl_url": "http://ssd.jpl.nasa.gov/sbdb.cgi?sstr=3736503",
    "absolute_magnitude_h": 25.5,
    "estimated_diameter": {
        "kilometers": {
            "estimated_diameter_min": 0.0211132445,
            "estimated_diameter_max": 0.0472106499
        },
        "meters": {
            "estimated_diameter_min": 21.113244479,
            "estimated_diameter_max": 47.2106498806
        },
        "miles": {
            "estimated_diameter_min": 0.0131191578,
            "estimated_diameter_max": 0.0293353287
        },
        "feet": {
            "estimated_diameter_min": 69.2691770164,
            "estimated_diameter_max": 154.8905885541
        }
    },
    "is_potentially_hazardous_asteroid": false,
    "close_approach_data": [
        {
            "close_approach_date": "2015-12-17",
            "close_approach_date_full": "2015-Dec-17 11:58",
            "epoch_date_close_approach": 1450353480000,
            "relative_velocity": {
                "kilometers_per_second": "10.4994293812",
                "kilometers_per_hour": "37797.9457724993",
                "miles_per_hour": "23486.1735829177"
            },
            "miss_distance": {
                "astronomical": "0.0249922884",
                "lunar": "9.7220001876",
                "kilometers": "3738793.111065708",
                "miles": "2323178.3120064504"
            },
            "orbiting_body": "Earth"
        },
        {
            "close_approach_date": "2017-11-27",
            "close_approach_date_full": "2017-Nov-27 23:25",
            "epoch_date_close_approach": 1511825100000,
            "relative_velocity": {
                "kilometers_per_second": "18.7537588973",
                "kilometers_per_hour": "67513.5320302051",
                "miles_per_hour": "41950.2832773238"
            },
            "miss_distance": {
                "astronomical": "0.290739865",
                "lunar": "113.097807485",
                "kilometers": "43494064.52808755",
                "miles": "27025958.48740619"
            },
            "orbiting_body": "Earth"
        }
    ],
    "orbital_data": {
        "orbit_id": "10",
        "orbit_determination_date": "2017-04-06 08:29:56",
        "first_observation_date": "2015-12-10",
        "last_observation_date": "2015-12-18",
        "data_arc_in_days": 8,
        "observations_used": 52,
        "orbit_uncertainty": "8",
        "minimum_orbit_intersection": ".0163503",
        "jupiter_tisserand_invariant": "4.301",
        "epoch_osculation": "2457369.5",
        "eccentricity": ".4470060115864007",
        "semi_major_axis": "1.567745147617108",
        "inclination": "1.486696104815376",
        "ascending_node_longitude": "306.9408237990576",
        "orbital_period": "716.9875669027377",
        "perihelion_distance": ".8669536419968514",
        "perihelion_argument": "192.159082445589",
        "aphelion_distance": "2.268536653237364",
        "perihelion_time": "2457413.583319737667",
        "mean_anomaly": "337.8657317948821",
        "mean_motion": ".5021007568585014",
        "equinox": "J2000",
        "orbit_class": {
            "orbit_class_type": "APO",
            "orbit_class_description": "Near-Earth asteroid orbits which cross the Earth’s orbit similar to that of 1862 Apollo",
            "orbit_class_range": "a (semi-major axis) > 1.0 AU; q (perihelion) < 1.017 AU"
        }
    },
    "is_sentry_object": false
}